NORAD_CAT_ID,OBJECT_NAME,OBJECT_TYPE,EPOCH,MEAN_MOTION,ECCENTRICITY,INCLINATION,RA_OF_ASC_NODE,ARG_OF_PERICENTER,MEAN_ANOMALY,BSTAR,MEAN_MOTION_DOT,MEAN_MOTION_DDOT,TLE_LINE0,TLE_LINE1,TLE_LINE2,SEMIMAJOR_AXIS,PERIOD,APOGEE,PERIGEE,DECAYED
53408.0,STARLINK-4491,PAYLOAD,2023-06-29 02:54:04,15.08833721,0.0001161,53.2173,214.0265,108.1052,252.0067,4.5795e-05,4.41e-06,0.0,0 STARLINK-4491,1 53408U 22097W   23180.12088472  .00000441  00000-0  45795-4 0  9999,2 53408  53.2173 214.0265 0001161 108.1052 252.0067 15.08833721 49529,6917.9,95.438,540.568,538.961,0.0
53408.0,STARLINK-4491,PAYLOAD,2023-06-30 18:38:42,15.08836048,0.0001115,53.217,206.5939,88.0759,272.036,-9.7705e-06,-4.43e-06,0.0,0 STARLINK-4491,1 53408U 22097W   23181.77688619 -.00000443  00000-0 -97705-5 0  9993,2 53408  53.2170 206.5939 0001115  88.0759 272.0360 15.08836048 49779,6917.892,95.438,540.529,538.986,0.0
53408.0,STARLINK-4491,PAYLOAD,2023-07-02 08:47:58,15.08839301,0.0001082,53.2166,199.4569,88.359,271.7526,3.1446e-05,2.13e-06,0.0,0 STARLINK-4491,1 53408U 22097W   23183.36664620  .00000213  00000-0  31446-4 0  9998,2 53408  53.2166 199.4569 0001082  88.3590 271.7526 15.08839301 50016,6917.883,95.438,540.496,538.999,0.0
53408.0,STARLINK-4491,PAYLOAD,2023-07-03 10:14:08,15.08842292,0.0001056,53.2165,194.6994,86.2631,273.8482,9.3008e-05,1.193e-05,0.0,0 STARLINK-4491,1 53408U 22097W   23184.42648253  .00001193  00000-0  93008-4 0  9990,2 53408  53.2165 194.6994 0001056  86.2631 273.8482 15.08842292 50172,6917.873,95.437,540.469,539.008,0.0
53408.0,STARLINK-4491,PAYLOAD,2023-07-04 06:54:09,15.08840025,0.0001071,53.2165,190.8338,85.0513,275.0602,2.8934e-05,1.73e-06,0.0,0 STARLINK-4491,1 53408U 22097W   23185.28760539  .00000173  00000-0  28934-4 0  9990,2 53408  53.2165 190.8338 0001071  85.0513 275.0602 15.08840025 50300,6917.88,95.438,540.486,539.004,0.0
53408.0,STARLINK-4491,PAYLOAD,2023-07-05 11:31:05,15.08840923,0.0001094,53.2164,185.4806,89.3993,270.7124,5.3121e-06,-2.03e-06,0.0,0 STARLINK-4491,1 53408U 22097W   23186.47992449 -.00000203  00000-0  53121-5 0  9991,2 53408  53.2164 185.4806 0001094  89.3993 270.7124 15.08840923 50480,6917.878,95.437,540.499,538.986,0.0
53408.0,STARLINK-4491,PAYLOAD,2023-07-06 00:14:10,15.08835214,0.0001106,53.2165,183.1016,90.6619,269.45,-3.1648e-06,-3.38e-06,0.0,0 STARLINK-4491,1 53408U 22097W   23187.00984908 -.00000338  00000-0 -31648-5 0  9992,2 53408  53.2165 183.1016 0001106  90.6619 269.4500 15.08835214 50562,6917.895,95.438,540.525,538.995,0.0
53408.0,STARLINK-4491,PAYLOAD,2023-07-07 06:26:30,15.08840152,0.0001068,53.2166,177.4522,87.1393,272.9721,5.7093e-05,6.21e-06,0.0,0 STARLINK-4491,1 53408U 22097W   23188.26840702  .00000621  00000-0  57093-4 0  9998,2 53408  53.2166 177.4522 0001068  87.1393 272.9721 15.08840152 50750,6917.88,95.438,540.484,539.006,0.0
53408.0,STARLINK-4491,PAYLOAD,2023-07-08 09:28:03,15.08839336,0.000107,53.2163,172.3968,85.7615,274.3499,6.6077e-05,7.64e-06,0.0,0 STARLINK-4491,1 53408U 22097W   23189.39448986  .00000764  00000-0  66077-4 0  9991,2 53408  53.2163 172.3968 0001070  85.7615 274.3499 15.08839336 50928,6917.882,95.438,540.488,539.007,0.0
53408.0,STARLINK-4491,PAYLOAD,2023-07-08 15:49:36,15.08834199,0.0001132,53.2167,171.2067,84.1482,275.9639,1.3309e-05,-7.6e-07,0.0,0 STARLINK-4491,1 53408U 22097W   23189.65945538 -.00000076  00000-0  13309-4 0  9992,2 53408  53.2167 171.2067 0001132  84.1482 275.9639 15.08834199 50963,6917.898,95.438,540.546,538.98,0.0
53408.0,STARLINK-4491,PAYLOAD,2023-07-10 04:23:29,15.0883593,0.0001183,53.2171,164.3682,92.3765,267.7362,3.602e-05,2.85e-06,0.0,0 STARLINK-4491,1 53408U 22097W   23191.18297733  .00000285  00000-0  36020-4 0  9996,2 53408  53.2171 164.3682 0001183  92.3765 267.7362 15.08835930 51197,6917.893,95.438,540.576,538.939,0.0
53408.0,STARLINK-4491,PAYLOAD,2023-07-11 04:14:15,15.08842428,0.0001157,53.2171,159.9072,88.9903,271.1222,9.9767e-05,1.3e-05,0.0,0 STARLINK-4491,1 53408U 22097W   23192.17657138  .00001300  00000-0  99767-4 0  9991,2 53408  53.2171 159.9072 0001157  88.9903 271.1222 15.08842428 51347,6917.873,95.437,540.538,538.938,0.0
53408.0,STARLINK-4491,PAYLOAD,2023-07-12 04:05:03,15.0884011,0.0001159,53.2173,155.4467,91.8133,268.2991,1.7547e-05,-9e-08,0.0,0 STARLINK-4491,1 53408U 22097W   23193.17017470 -.00000009  00000-0  17547-4 0  9993,2 53408  53.2173 155.4467 0001159  91.8133 268.2991 15.08840110 51490,6917.88,95.438,540.547,538.943,0.0
53408.0,STARLINK-4491,PAYLOAD,2023-07-13 07:06:36,15.08843243,0.0001117,53.2168,150.3927,86.4703,273.6417,-2.163e-05,-6.32e-06,0.0,0 STARLINK-4491,1 53408U 22097W   23194.29625460 -.00000632  00000-0 -21630-4 0  9992,2 53408  53.2168 150.3927 0001117  86.4703 273.6417 15.08843243 51668,6917.87,95.437,540.508,538.963,0.0
53408.0,STARLINK-4491,PAYLOAD,2023-07-14 19:40:28,15.08837524,0.0001201,53.2165,143.553,88.3244,271.7885,5.8755e-05,6.47e-06,0.0,0 STARLINK-4491,1 53408U 22097W   23195.81977837  .00000647  00000-0  58755-4 0  9991,2 53408  53.2165 143.5530 0001201  88.3244 271.7885 15.08837524 51892,6917.888,95.438,540.584,538.922,0.0
53408.0,STARLINK-4491,PAYLOAD,2023-07-15 05:12:47,15.08844677,0.0001115,53.2172,141.7694,88.517,271.595,0.00011432,1.532e-05,0.0,0 STARLINK-4491,1 53408U 22097W   23196.21721253  .00001532  00000-0  11432-3 0  9999,2 53408  53.2172 141.7694 0001115  88.5170 271.5950 15.08844677 51950,6917.866,95.437,540.502,538.96,0.0
53408.0,STARLINK-4491,PAYLOAD,2023-07-15 14:45:06,15.08838392,0.0001144,53.217,139.9854,95.3362,264.7761,1.8701e-05,1e-07,0.0,0 STARLINK-4491,1 53408U 22097W   23196.61465887  .00000010  00000-0  18701-4 0  9998,2 53408  53.2170 139.9854 0001144  95.3362 264.7761 15.08838392 52015,6917.885,95.438,540.542,538.959,0.0
53408.0,STARLINK-4491,PAYLOAD,2023-07-16 14:35:54,15.08835399,0.0001052,53.217,135.5252,92.7816,267.3296,5.0786e-06,-2.07e-06,0.0,0 STARLINK-4491,1 53408U 22097W   23197.60826511 -.00000207  00000-0  50786-5 0  9992,2 53408  53.2170 135.5252 0001052  92.7816 267.3296 15.08835399 52164,6917.894,95.438,540.487,539.032,0.0
53408.0,STARLINK-4491,PAYLOAD,2023-07-17 12:51:17,15.08846455,0.000109,53.2167,131.3624,85.7275,274.3842,7.3213e-06,-1.71e-06,0.0,0 STARLINK-4491,1 53408U 22097W   23198.53561755 -.00000171  00000-0  73213-5 0  9991,2 53408  53.2167 131.3624 0001090  85.7275 274.3842 15.08846455 52306,6917.861,95.437,540.48,538.972,0.0
53408.0,STARLINK-4491,PAYLOAD,2023-07-18 04:45:07,15.08852738,0.000116,53.2167,128.3881,89.1731,270.9394,0.00017833,2.552e-05,0.0,0 STARLINK-4491,1 53408U 22097W   23199.19800832  .00002552  00000-0  17833-3 0  9994,2 53408  53.2167 128.3881 0001160  89.1731 270.9394 15.08852738 52406,6917.841,95.437,540.509,538.904,0.0
53408.0,STARLINK-4491,PAYLOAD,2023-07-18 23:49:47,15.08835258,0.0001246,53.2173,124.8197,85.3398,274.7736,-1.655e-05,-5.51e-06,0.0,0 STARLINK-4491,1 53408U 22097W   23199.99290665 -.00000551  00000-0 -16550-4 0  9994,2 53408  53.2173 124.8197 0001246  85.3398 274.7736 15.08835258 52529,6917.895,95.438,540.622,538.898,0.0
53408.0,STARLINK-4491,PAYLOAD,2023-07-19 04:35:56,15.08840958,0.0001285,53.2173,123.9272,80.0067,280.107,-3.7354e-05,-8.82e-06,0.0,0 STARLINK-4491,1 53408U 22097W   23200.19162445 -.00000882  00000-0 -37354-4 0  9995,2 53408  53.2173 123.9272 0001285  80.0067 280.1070 15.08840958 52559,6917.877,95.437,540.631,538.854,0.0
53408.0,STARLINK-4491,PAYLOAD,2023-07-20 04:26:42,15.08849203,0.0001246,53.2176,119.4666,88.9714,271.1421,-4.6779e-05,-1.032e-05,0.0,0 STARLINK-4491,1 53408U 22097W   23201.18521963 -.00001032  00000-0 -46779-4 0  9998,2 53408  53.2176 119.4666 0001246  88.9714 271.1421 15.08849203 52701,6917.852,95.437,540.579,538.855,0.0
53408.0,STARLINK-4491,PAYLOAD,2023-07-21 04:17:30,15.08836734,0.0001445,53.2188,115.0058,80.6882,279.4273,6.0571e-05,6.76e-06,0.0,0 STARLINK-4491,1 53408U 22097W   23202.17882701  .00000676  00000-0  60571-4 0  9995,2 53408  53.2188 115.0058 0001445  80.6882 279.4273 15.08836734 52854,6917.89,95.438,540.755,538.756,0.0
53408.0,STARLINK-4491,PAYLOAD,2023-07-24 02:14:29,15.08836144,0.0001274,53.2179,101.9206,116.8055,243.3067,-0.00011466,-2.112e-05,0.0,0 STARLINK-4491,1 53408U 22097W   23205.09339660 -.00002112  00000-0 -11466-3 0  9997,2 53408  53.2179 101.9206 0001274 116.8055 243.3067 15.08836144 53786,6917.892,95.438,540.639,538.876,0.0
53408.0,STARLINK-4491,PAYLOAD,2023-07-25 02:05:15,15.08848295,0.0001062,53.2183,97.4638,122.3923,237.7172,0.00013165,1.808e-05,0.0,0 STARLINK-4491,1 53408U 22097W   23206.08698226  .00001808  00000-0  13165-3 0  9990,2 53408  53.2183  97.4638 0001062 122.3923 237.7172 15.08848295 53931,6917.855,95.437,540.455,538.985,0.0
53408.0,STARLINK-4491,PAYLOAD,2023-07-25 22:45:17,15.08836413,0.0001292,53.2183,93.5989,87.4522,272.6618,4.4932e-06,-2.16e-06,0.0,0 STARLINK-4491,1 53408U 22097W   23206.94811446 -.00000216  00000-0  44932-5 0  9997,2 53408  53.2183  93.5989 0001292  87.4522 272.6618 15.08836413 54065,6917.891,95.438,540.65,538.863,0.0
53408.0,STARLINK-4491,PAYLOAD,2023-07-27 01:46:48,15.08852888,0.0001362,53.2188,88.5423,90.8769,269.2379,0.00022171,3.244e-05,0.0,0 STARLINK-4491,1 53408U 22097W   23208.07417782  .00003244  00000-0  22171-3 0  9990,2 53408  53.2188  88.5423 0001362  90.8769 269.2379 15.08852888 53740,6917.841,95.437,540.648,538.764,0.0
53408.0,STARLINK-4491,PAYLOAD,2023-07-27 09:43:46,15.08834546,0.0001271,53.2186,87.0558,94.3478,265.7659,6.0013e-05,6.67e-06,0.0,0 STARLINK-4491,1 53408U 22097W   23208.40539410  .00000667  00000-0  60013-4 0  9994,2 53408  53.2186  87.0558 0001271  94.3478 265.7659 15.08834546 53794,6917.897,95.438,540.641,538.883,0.0
53408.0,STARLINK-4491,PAYLOAD,2023-07-27 22:26:51,15.08833379,0.0001337,53.2192,84.6782,96.2344,263.8801,-4.8787e-05,-1.064e-05,0.0,0 STARLINK-4491,1 53408U 22097W   23208.93532088 -.00001064  00000-0 -48787-4 0  9994,2 53408  53.2192  84.6782 0001337  96.2344 263.8801 15.08833379 54364,6917.901,95.438,540.691,538.841,0.0
